H1 CPF  1  DLR 2022 02 08 10  5392 technosat            
H2  1704205 6203    42829 2022 02 08 00 00 00 2022 02 15 00 00 00    60 1 1  0 0 0
H9
10 0 59618  21600.000000  0      -4865673.758      -3627323.147       3419603.129
10 0 59618  21660.000000  0      -5089256.169      -3675679.802       3022003.032
10 0 59618  21720.000000  0      -5291697.192      -3706652.176       2611550.043
10 0 59618  21780.000000  0      -5471995.251      -3720302.399       2189992.312
10 0 59618  21840.000000  0      -5629244.477      -3716774.788       1759124.788
10 0 59618  21900.000000  0      -5762639.295      -3696294.355       1320781.352
10 0 59618  21960.000000  0      -5871478.544      -3659164.884        876826.763
10 0 59618  22020.000000  0      -5955169.093      -3605766.636        429148.479
10 0 59618  22080.000000  0      -6013228.941      -3536553.700        -20351.620
10 0 59618  22140.000000  0      -6045289.793      -3452050.980       -469765.584
10 0 59618  22200.000000  0      -6051099.072      -3352850.815       -917187.792
10 0 59618  22260.000000  0      -6030521.298      -3239609.262      -1360723.309
10 0 59618  22320.000000  0      -5983538.867      -3113042.068      -1798496.104
10 0 59618  22380.000000  0      -5910252.280      -2973920.414      -2228657.071
10 0 59618  22440.000000  0      -5810879.863      -2823066.444      -2649391.908
10 0 59618  22500.000000  0      -5685756.906      -2661348.580      -3058928.824
10 0 59618  22560.000000  0      -5535334.225      -2489676.658      -3455545.975
10 0 59618  22620.000000  0      -5360176.220      -2308996.914      -3837578.592
10 0 59618  22680.000000  0      -5160958.428      -2120286.875      -4203425.824
10 0 59618  22740.000000  0      -4938464.589      -1924550.176      -4551557.245
10 0 59618  22800.000000  0      -4693583.234      -1722811.327      -4880519.026
10 0 59618  22860.000000  0      -4427303.815      -1516110.436      -5188939.739
10 0 59618  22920.000000  0      -4140712.389      -1305497.922      -5475535.723
10 0 59618  22980.000000  0      -3834986.931      -1092029.290      -5739116.032
10 0 59618  23040.000000  0      -3511392.292       -876759.966      -5978586.977
10 0 59618  23100.000000  0      -3171274.817       -660740.203      -6192956.251
10 0 59618  23160.000000  0      -2816056.658       -445010.108      -6381336.619
10 0 59618  23220.000000  0      -2447229.794       -230594.809      -6542949.210
10 0 59618  23280.000000  0      -2066349.732        -18499.756      -6677126.358
10 0 59618  23340.000000  0      -1675029.029        190293.780      -6783313.933
10 0 59618  23400.000000  0      -1274930.667        394833.032      -6861073.341
10 0 59618  23460.000000  0       -867761.202        594197.934      -6910083.151
10 0 59618  23520.000000  0       -455263.696        787505.145      -6930140.232
10 0 59618  23580.000000  0        -39210.548        973911.791      -6921160.436
10 0 59618  23640.000000  0        378603.763       1152618.946      -6883178.965
10 0 59618  23700.000000  0        796370.139       1322874.929      -6816350.454
10 0 59618  23760.000000  0       1212272.561       1483978.452      -6720948.478
10 0 59618  23820.000000  0       1624495.713       1635281.452      -6597364.492
10 0 59618  23880.000000  0       2031232.622       1776191.656      -6446106.513
10 0 59618  23940.000000  0       2430692.469       1906174.890      -6267797.339
10 0 59618  24000.000000  0       2821108.319       2024757.096      -6063172.218
10 0 59618  24060.000000  0       3200744.729       2131526.042      -5833076.174
10 0 59618  24120.000000  0       3567905.367       2226132.779      -5578460.985
10 0 59618  24180.000000  0       3920940.603       2308292.799      -5300381.699
10 0 59618  24240.000000  0       4258255.004       2377786.916      -4999992.699
10 0 59618  24300.000000  0       4578314.691       2434461.819      -4678543.299
10 0 59618  24360.000000  0       4879654.475       2478230.281      -4337372.892
10 0 59618  24420.000000  0       5160884.750       2509071.081      -3977905.731
10 0 59618  24480.000000  0       5420698.151       2527028.586      -3601645.281
10 0 59618  24540.000000  0       5657875.864       2532212.008      -3210168.268
10 0 59618  24600.000000  0       5871293.787       2524794.388      -2805118.376
10 0 59618  24660.000000  0       6059928.276       2505011.208      -2388199.392
10 0 59618  24720.000000  0       6222861.342       2473158.693      -1961168.080
10 0 59618  24780.000000  0       6359285.450       2429591.788      -1525826.819
10 0 59618  24840.000000  0       6468507.847       2374721.823      -1084015.984
10 0 59618  24900.000000  0       6549954.447       2309013.925       -637606.077
10 0 59618  24960.000000  0       6603173.116       2232984.103       -188489.553
10 0 59618  25020.000000  0       6627836.246       2147196.018        261427.456
10 0 59618  25080.000000  0       6623742.738       2052257.554        710233.349
10 0 59618  25140.000000  0       6590819.573       1948817.224       1156019.313
10 0 59618  25200.000000  0       6529122.816       1837560.365       1596887.792
10 0 59618  25260.000000  0       6438837.825       1719205.067       2030960.965
10 0 59618  25320.000000  0       6320278.771       1594497.928       2456389.063
10 0 59618  25380.000000  0       6173887.559       1464209.730       2871358.484
10 0 59618  25440.000000  0       6000232.190       1329131.013       3274099.812
10 0 59618  25500.000000  0       5800004.428       1190067.557       3662895.675
10 0 59618  25560.000000  0       5574016.795       1047835.791       4036088.293
10 0 59618  25620.000000  0       5323199.031        903258.207       4392086.620
10 0 59618  25680.000000  0       5048594.117        757158.850       4729373.220
10 0 59618  25740.000000  0       4751353.701        610358.774       5046510.915
10 0 59618  25800.000000  0       4432732.952        463671.547       5342148.990
10 0 59618  25860.000000  0       4094084.939        317898.836       5615028.991
10 0 59618  25920.000000  0       3736854.516        173826.113       5863990.014
10 0 59618  25980.000000  0       3362571.875         32218.583       6087973.483
10 0 59618  26040.000000  0       2972845.805       -106182.759       6286027.564
10 0 59618  26100.000000  0       2569356.580       -240664.944       6457311.140
10 0 59618  26160.000000  0       2153848.518       -370546.622       6601097.284
10 0 59618  26220.000000  0       1728122.288       -495181.464       6716776.283
10 0 59618  26280.000000  0       1294026.894       -613961.376       6803858.193
10 0 59618  26340.000000  0        853451.413       -726319.459       6861974.739
10 0 59618  26400.000000  0        408316.708       -831732.662       6890880.731
10 0 59618  26460.000000  0        -39433.055       -929724.236       6890455.068
10 0 59618  26520.000000  0       -487838.982      -1019865.910       6860701.143
10 0 59618  26580.000000  0       -934936.084      -1101779.789       6801746.810
10 0 59618  26640.000000  0      -1378761.975      -1175139.944       6713843.793
10 0 59618  26700.000000  0      -1817365.510      -1239673.697       6597366.603
10 0 59618  26760.000000  0      -2248815.395      -1295162.613       6452810.979
10 0 59618  26820.000000  0      -2671208.711      -1341443.178       6280791.912
10 0 59618  26880.000000  0      -3082679.466      -1378407.211       6082041.261
10 0 59618  26940.000000  0      -3481407.093      -1406001.983       5857404.736
10 0 59618  27000.000000  0      -3865624.683      -1424230.062       5607838.351
10 0 59618  27060.000000  0      -4233627.032      -1433148.859       5334404.450
10 0 59618  27120.000000  0      -4583778.456      -1432869.820       5038267.221
10 0 59618  27180.000000  0      -4914520.311      -1423557.340       4720687.766
10 0 59618  27240.000000  0      -5224378.182      -1405427.393       4383018.697
10 0 59618  27300.000000  0      -5511968.655      -1378745.851       4026698.326
10 0 59618  27360.000000  0      -5776005.706      -1343826.526       3653244.511
10 0 59618  27420.000000  0      -6015306.662      -1301028.959       3264248.138
10 0 59618  27480.000000  0      -6228797.716      -1250755.975       2861366.317
10 0 59618  27540.000000  0      -6415519.061      -1193451.002       2446315.241
10 0 59618  27600.000000  0      -6574629.487      -1129595.152       2020862.637
10 0 59618  27660.000000  0      -6705410.301      -1059704.089       1586819.939
10 0 59618  27720.000000  0      -6807268.633       -984324.722       1146034.324
10 0 59618  27780.000000  0      -6879740.157       -904031.711        700380.597
10 0 59618  27840.000000  0      -6922491.188       -819423.839        251752.941
10 0 59618  27900.000000  0      -6935320.130       -731120.271       -197943.392
10 0 59618  27960.000000  0      -6918158.317       -639756.720       -646800.436
10 0 59618  28020.000000  0      -6871070.150       -545981.508      -1092915.873
10 0 59618  28080.000000  0      -6794252.550       -450451.594      -1534401.273
10 0 59618  28140.000000  0      -6688033.849       -353828.612      -1969390.162
10 0 59618  28200.000000  0      -6552872.149       -256774.934      -2396046.015
10 0 59618  28260.000000  0      -6389353.058       -159949.717      -2812570.167
10 0 59618  28320.000000  0      -6198186.707        -64004.971      -3217209.489
10 0 59618  28380.000000  0      -5980204.194         30418.284      -3608263.723
10 0 59618  28440.000000  0      -5736353.536        122693.758      -3984092.492
10 0 59618  28500.000000  0      -5467695.129        212213.495      -4343122.025
10 0 59618  28560.000000  0      -5175396.725        298391.355      -4683851.516
10 0 59618  28620.000000  0      -4860727.987        380666.374      -5004859.111
10 0 59618  28680.000000  0      -4525054.652        458505.939      -5304807.519
10 0 59618  28740.000000  0      -4169832.308        531408.735      -5582449.229
99
